start=new Date('2022-12-02T00:00:00.000Z').valueOf();
sats=[{"TLE_LINE1":"1 53013U 22076AD  22335.58420475  .00001298  00000-0  99616-4 0  9994","RCS_SIZE":"LARGE","COUNTRY_CODE":"US","MEAN_MOTION_DDOT":"0.0000000000000","ELEMENT_SET_NO":"999","SEMIMAJOR_AXIS":"6917.884","MEAN_ELEMENT_THEORY":"SGP4","GP_ID":"219307698","RA_OF_ASC_NODE":"44.6788","APOAPSIS":"540.883","LAUNCH_DATE":"2022-07-07","CENTER_NAME":"EARTH","ECCENTRICITY":"0.00016400","OBJECT_TYPE":"PAYLOAD","OBJECT_ID":"2022-076AD","MEAN_ANOMALY":"306.9739","MEAN_MOTION":"15.08838870","EPHEMERIS_TYPE":"0","DECAY_DATE":null,"MEAN_MOTION_DOT":"0.00001298","TIME_SYSTEM":"UTC","REF_FRAME":"TEME","BSTAR":"0.00009961600000","INCLINATION":"53.2184","OBJECT_NAME":"STARLINK-4177","FILE":"3678231","PERIOD":"95.438","REV_AT_EPOCH":"2271","CLASSIFICATION_TYPE":"U","PERIAPSIS":"538.614","ARG_OF_PERICENTER":"53.1403","SITE":"AFETR","NORAD_CAT_ID":"53013","EPOCH":"2022-12-01T14:01:15.290400","TLE_LINE2":"2 53013  53.2184  44.6788 0001640  53.1403 306.9739 15.08838870 22718"},{"TIME_SYSTEM":"UTC","REF_FRAME":"TEME","MEAN_MOTION_DOT":"-0.00000913","EPHEMERIS_TYPE":"0","DECAY_DATE":null,"BSTAR":"-0.00003926700000","FILE":"3677495","OBJECT_NAME":"STARLINK-4183","PERIOD":"95.437","REV_AT_EPOCH":"2269","CLASSIFICATION_TYPE":"U","INCLINATION":"53.2179","TLE_LINE2":"2 53014  53.2179  45.1926 0001717  57.9288 302.1871 15.08842647 22690","NORAD_CAT_ID":"53014","EPOCH":"2022-12-01T11:11:40.820352","SITE":"AFETR","ARG_OF_PERICENTER":"57.9288","PERIAPSIS":"538.549","MEAN_MOTION_DDOT":"0.0000000000000","COUNTRY_CODE":"US","ELEMENT_SET_NO":"999","RCS_SIZE":"LARGE","TLE_LINE1":"1 53014U 22076AE  22335.46644468 -.00000913  00000-0 -39267-4 0  9993","MEAN_ELEMENT_THEORY":"SGP4","SEMIMAJOR_AXIS":"6917.872","CENTER_NAME":"EARTH","ECCENTRICITY":"0.00017170","APOAPSIS":"540.925","RA_OF_ASC_NODE":"45.1926","LAUNCH_DATE":"2022-07-07","GP_ID":"219269730","MEAN_ANOMALY":"302.1871","MEAN_MOTION":"15.08842647","OBJECT_TYPE":"PAYLOAD","OBJECT_ID":"2022-076AE"},{"SITE":"AFETR","PERIAPSIS":"537.942","ARG_OF_PERICENTER":"30.3221","TLE_LINE2":"2 53015  53.2189  44.1134 0002612  30.3221 329.7922 15.08838682 22730","NORAD_CAT_ID":"53015","EPOCH":"2022-12-01T17:01:26.106816","INCLINATION":"53.2189","CLASSIFICATION_TYPE":"U","FILE":"3678231","REV_AT_EPOCH":"2273","PERIOD":"95.438","OBJECT_NAME":"STARLINK-4262","BSTAR":"0.00005868800000","MEAN_MOTION_DOT":"0.00000646","EPHEMERIS_TYPE":"0","DECAY_DATE":null,"REF_FRAME":"TEME","TIME_SYSTEM":"UTC","OBJECT_ID":"2022-076AF","OBJECT_TYPE":"PAYLOAD","MEAN_MOTION":"15.08838682","MEAN_ANOMALY":"329.7922","GP_ID":"219308388","CENTER_NAME":"EARTH","ECCENTRICITY":"0.00026120","LAUNCH_DATE":"2022-07-07","APOAPSIS":"541.556","RA_OF_ASC_NODE":"44.1134","SEMIMAJOR_AXIS":"6917.884","MEAN_ELEMENT_THEORY":"SGP4","RCS_SIZE":"LARGE","TLE_LINE1":"1 53015U 22076AF  22335.70932994  .00000646  00000-0  58688-4 0  9994","ELEMENT_SET_NO":"999","MEAN_MOTION_DDOT":"0.0000000000000","COUNTRY_CODE":"US"},{"BSTAR":"-0.00003752000000","MEAN_MOTION_DOT":"-0.00000886","DECAY_DATE":null,"EPHEMERIS_TYPE":"0","TIME_SYSTEM":"UTC","REF_FRAME":"TEME","SITE":"AFETR","ARG_OF_PERICENTER":"33.2356","PERIAPSIS":"538.000","TLE_LINE2":"2 53016  53.2186  44.6638 0002499  33.2356 326.8793 15.08845393 22715","NORAD_CAT_ID":"53016","EPOCH":"2022-12-01T14:06:33.070464","INCLINATION":"53.2186","FILE":"3678231","REV_AT_EPOCH":"2271","PERIOD":"95.437","OBJECT_NAME":"STARLINK-4283","CLASSIFICATION_TYPE":"U","SEMIMAJOR_AXIS":"6917.864","MEAN_ELEMENT_THEORY":"SGP4","RCS_SIZE":"LARGE","TLE_LINE1":"1 53016U 22076AG  22335.58788276 -.00000886  00000-0 -37520-4 0  9993","MEAN_MOTION_DDOT":"0.0000000000000","COUNTRY_CODE":"US","ELEMENT_SET_NO":"999","OBJECT_TYPE":"PAYLOAD","OBJECT_ID":"2022-076AG","MEAN_ANOMALY":"326.8793","MEAN_MOTION":"15.08845393","GP_ID":"219307159","CENTER_NAME":"EARTH","ECCENTRICITY":"0.00024990","RA_OF_ASC_NODE":"44.6638","APOAPSIS":"541.458","LAUNCH_DATE":"2022-07-07"},{"SEMIMAJOR_AXIS":"6917.875","MEAN_ELEMENT_THEORY":"SGP4","RCS_SIZE":"LARGE","TLE_LINE1":"1 53017U 22076AH  22335.63940261 -.00000717  00000-0 -26951-4 0  9993","COUNTRY_CODE":"US","MEAN_MOTION_DDOT":"0.0000000000000","ELEMENT_SET_NO":"999","OBJECT_TYPE":"PAYLOAD","OBJECT_ID":"2022-076AH","MEAN_ANOMALY":"315.4316","MEAN_MOTION":"15.08841817","GP_ID":"219307334","ECCENTRICITY":"0.00021030","CENTER_NAME":"EARTH","RA_OF_ASC_NODE":"44.4216","APOAPSIS":"541.195","LAUNCH_DATE":"2022-07-07","BSTAR":"-0.00002695100000","MEAN_MOTION_DOT":"-0.00000717","EPHEMERIS_TYPE":"0","DECAY_DATE":null,"TIME_SYSTEM":"UTC","REF_FRAME":"TEME","SITE":"AFETR","PERIAPSIS":"538.285","ARG_OF_PERICENTER":"44.6845","TLE_LINE2":"2 53017  53.2192  44.4216 0002103  44.6845 315.4316 15.08841817 22738","NORAD_CAT_ID":"53017","EPOCH":"2022-12-01T15:20:44.385504","INCLINATION":"53.2192","PERIOD":"95.437","FILE":"3678231","OBJECT_NAME":"STARLINK-4281","REV_AT_EPOCH":"2273","CLASSIFICATION_TYPE":"U"},{"MEAN_MOTION_DOT":"-0.00002033","DECAY_DATE":null,"EPHEMERIS_TYPE":"0","TIME_SYSTEM":"UTC","REF_FRAME":"TEME","BSTAR":"-0.00010970000000","INCLINATION":"53.2197","PERIOD":"95.438","FILE":"3677495","OBJECT_NAME":"STARLINK-4279","REV_AT_EPOCH":"2266","CLASSIFICATION_TYPE":"U","SITE":"AFETR","PERIAPSIS":"538.249","ARG_OF_PERICENTER":"34.5388","TLE_LINE2":"2 53018  53.2197  46.1601 0002226  34.5388 325.5748 15.08825623 22667","EPOCH":"2022-12-01T06:05:43.969632","NORAD_CAT_ID":"53018","RCS_SIZE":"LARGE","TLE_LINE1":"1 53018U 22076AJ  22335.25398113 -.00002033  00000-0 -10970-3 0  9991","COUNTRY_CODE":"US","MEAN_MOTION_DDOT":"0.0000000000000","ELEMENT_SET_NO":"999","SEMIMAJOR_AXIS":"6917.924","MEAN_ELEMENT_THEORY":"SGP4","GP_ID":"219270077","CENTER_NAME":"EARTH","ECCENTRICITY":"0.00022260","APOAPSIS":"541.329","RA_OF_ASC_NODE":"46.1601","LAUNCH_DATE":"2022-07-07","OBJECT_TYPE":"PAYLOAD","OBJECT_ID":"2022-076AJ","MEAN_ANOMALY":"325.5748","MEAN_MOTION":"15.08825623"},{"EPHEMERIS_TYPE":"0","DECAY_DATE":null,"MEAN_MOTION_DOT":"-0.00000123","REF_FRAME":"TEME","TIME_SYSTEM":"UTC","BSTAR":"0.00001036600000","INCLINATION":"53.2195","CLASSIFICATION_TYPE":"U","PERIOD":"95.438","FILE":"3678231","REV_AT_EPOCH":"2272","OBJECT_NAME":"STARLINK-4282","ARG_OF_PERICENTER":"33.8208","PERIAPSIS":"538.348","SITE":"AFETR","NORAD_CAT_ID":"53019","EPOCH":"2022-12-01T15:10:08.429664","TLE_LINE2":"2 53019  53.2195  44.4481 0002032  33.8208 326.2914 15.08837274 22726","TLE_LINE1":"1 53019U 22076AK  22335.63204201 -.00000123  00000-0  10366-4 0  9995","RCS_SIZE":"LARGE","ELEMENT_SET_NO":"999","MEAN_MOTION_DDOT":"0.0000000000000","COUNTRY_CODE":"US","SEMIMAJOR_AXIS":"6917.889","MEAN_ELEMENT_THEORY":"SGP4","GP_ID":"219308044","LAUNCH_DATE":"2022-07-07","RA_OF_ASC_NODE":"44.4481","APOAPSIS":"541.159","CENTER_NAME":"EARTH","ECCENTRICITY":"0.00020320","OBJECT_ID":"2022-076AK","OBJECT_TYPE":"PAYLOAD","MEAN_ANOMALY":"326.2914","MEAN_MOTION":"15.08837274"},{"MEAN_ELEMENT_THEORY":"SGP4","SEMIMAJOR_AXIS":"6917.861","ELEMENT_SET_NO":"999","MEAN_MOTION_DDOT":"0.0000000000000","COUNTRY_CODE":"US","TLE_LINE1":"1 53020U 22076AL  22335.71299752  .00000338  00000-0  39304-4 0  9991","RCS_SIZE":"LARGE","MEAN_MOTION":"15.08846364","MEAN_ANOMALY":"332.5213","OBJECT_ID":"2022-076AL","OBJECT_TYPE":"PAYLOAD","LAUNCH_DATE":"2022-07-07","APOAPSIS":"540.559","RA_OF_ASC_NODE":"44.0955","CENTER_NAME":"EARTH","ECCENTRICITY":"0.00012040","GP_ID":"219307523","BSTAR":"0.00003930400000","REF_FRAME":"TEME","TIME_SYSTEM":"UTC","DECAY_DATE":null,"EPHEMERIS_TYPE":"0","MEAN_MOTION_DOT":"0.00000338","EPOCH":"2022-12-01T17:06:42.985728","NORAD_CAT_ID":"53020","TLE_LINE2":"2 53020  53.2200  44.0955 0001204  27.5843 332.5213 15.08846364 22735","ARG_OF_PERICENTER":"27.5843","PERIAPSIS":"538.893","SITE":"AFETR","CLASSIFICATION_TYPE":"U","FILE":"3678231","OBJECT_NAME":"STARLINK-4287","PERIOD":"95.437","REV_AT_EPOCH":"2273","INCLINATION":"53.2200"},{"MEAN_MOTION":"15.08840216","MEAN_ANOMALY":"322.0562","OBJECT_TYPE":"PAYLOAD","OBJECT_ID":"2022-076AM","ECCENTRICITY":"0.00020500","CENTER_NAME":"EARTH","APOAPSIS":"541.163","RA_OF_ASC_NODE":"44.4778","LAUNCH_DATE":"2022-07-07","GP_ID":"219307699","MEAN_ELEMENT_THEORY":"SGP4","SEMIMAJOR_AXIS":"6917.880","MEAN_MOTION_DDOT":"0.0000000000000","COUNTRY_CODE":"US","ELEMENT_SET_NO":"999","RCS_SIZE":"LARGE","TLE_LINE1":"1 53021U 22076AM  22335.62468539 -.00000133  00000-0  97671-5 0  9999","TLE_LINE2":"2 53021  53.2202  44.4778 0002050  38.0575 322.0562 15.08840216 22724","NORAD_CAT_ID":"53021","EPOCH":"2022-12-01T14:59:32.817696","SITE":"AFETR","PERIAPSIS":"538.327","ARG_OF_PERICENTER":"38.0575","FILE":"3678231","PERIOD":"95.438","REV_AT_EPOCH":"2272","OBJECT_NAME":"STARLINK-4203","CLASSIFICATION_TYPE":"U","INCLINATION":"53.2202","BSTAR":"0.00000976710000","TIME_SYSTEM":"UTC","REF_FRAME":"TEME","MEAN_MOTION_DOT":"-0.00000133","EPHEMERIS_TYPE":"0","DECAY_DATE":null},{"SITE":"AFETR","ARG_OF_PERICENTER":"24.6887","PERIAPSIS":"538.046","TLE_LINE2":"2 53022  53.2192  45.0336 0002446  24.6887 335.4222 15.08842481 23173","NORAD_CAT_ID":"53022","EPOCH":"2022-12-01T12:04:40.966752","INCLINATION":"53.2192","CLASSIFICATION_TYPE":"U","PERIOD":"95.437","FILE":"3677997","REV_AT_EPOCH":"2317","OBJECT_NAME":"STARLINK-4216","BSTAR":"0.00005868000000","MEAN_MOTION_DOT":"0.00000646","DECAY_DATE":null,"EPHEMERIS_TYPE":"0","REF_FRAME":"TEME","TIME_SYSTEM":"UTC","OBJECT_ID":"2022-076AN","OBJECT_TYPE":"PAYLOAD","MEAN_ANOMALY":"335.4222","MEAN_MOTION":"15.08842481","GP_ID":"219280592","ECCENTRICITY":"0.00024460","CENTER_NAME":"EARTH","LAUNCH_DATE":"2022-07-07","APOAPSIS":"541.430","RA_OF_ASC_NODE":"45.0336","SEMIMAJOR_AXIS":"6917.873","MEAN_ELEMENT_THEORY":"SGP4","RCS_SIZE":"LARGE","TLE_LINE1":"1 53022U 22076AN  22335.50325193  .00000646  00000-0  58680-4 0  9999","ELEMENT_SET_NO":"999","MEAN_MOTION_DDOT":"0.0000000000000","COUNTRY_CODE":"US"}];
